GLOBALSTAR M079         
1 37188U 10054A   24189.35132398 -.00000101  00000+0  15209-4 0  9998
2 37188  52.0037 109.5202 0000391  20.1463 136.0167 12.62271470632900
GLOBALSTAR M076         
1 37190U 10054C   24189.32344485 -.00000101  00000+0  15817-4 0  9995
2 37190  52.0028 109.1210 0000720   9.2486 139.8970 12.62262482633229
GLOBALSTAR M077         
1 37191U 10054D   24189.39417402 -.00000082  00000+0  12319-3 0  9994
2 37191  52.0081  65.6629 0000807  64.7888 106.0374 12.62261082633608
GLOBALSTAR M075         
1 37192U 10054E   24189.33759942 -.00000120  00000+0 -88531-4 0  9991
2 37192  51.9929 151.5272 0000227  30.6030 122.7744 12.62261330632458
GLOBALSTAR M073         
1 37193U 10054F   24189.42092194 -.00000077  00000+0  15095-3 0  9995
2 37193  52.0069  64.8314 0000747  54.1822 116.6966 12.62266729634295
GLOBALSTAR M088         
1 37740U 11033B   24189.55075495 -.00000072  00000+0  17782-3 0  9990
2 37740  51.9735 279.4195 0000636 147.5262 315.4595 12.62264874598873
GLOBALSTAR M091         
1 37741U 11033C   24189.48592255 -.00000082  00000+0  12313-3 0  9997
2 37741  51.9982 242.5577 0000619 171.5084 295.2772 12.62264536599657
GLOBALSTAR M085         
1 37742U 11033D   24189.48522514 -.00000114  00000+0 -55259-4 0  9993
2 37742  51.9839 193.8996 0000254 191.3694 333.7240 12.62263211600160
GLOBALSTAR M089         
1 37744U 11033F   24189.39407288 -.00000114  00000+0 -58045-4 0  9991
2 37744  51.9912 151.0466 0000584   5.2476 163.1911 12.62265712601146
GLOBALSTAR M080         
1 38041U 11080B   24189.51107455 -.00000090  00000+0  75422-4 0  9991
2 38041  52.0077  19.2785 0000850  56.0930 346.0759 12.62262598579409
GLOBALSTAR M092         
1 38043U 11080D   24189.57407068 -.00000085  00000+0  10577-3 0  9995
2 38043  52.0095  64.8543 0000898  66.4570 322.1976 12.62263210578436
GLOBALSTAR M090         
1 38044U 11080E   24189.55881174 -.00000101  00000+0  16390-4 0  9997
2 38044  51.9906 328.7974 0000953 122.3256 316.1937 12.62264490580097
GLOBALSTAR M086         
1 38045U 11080F   24189.50614699 -.00000089  00000+0  83405-4 0  9995
2 38045  51.9915 329.4808 0000252 222.8223 217.0767 12.62264046580136
GLOBALSTAR M097         
1 39072U 13005A   24189.43640318 -.00000072  00000+0  17595-3 0  9992
2 39072  52.0032 243.8948 0000486 175.4485 184.6386 12.62264279527275
GLOBALSTAR M093         
1 39073U 13005B   24189.48880309 -.00000077  00000+0  15136-3 0  9998
2 39073  51.9793 237.5871 0000547 192.1183 167.9670 12.62275764527239
GLOBALSTAR M095         
1 39077U 13005F   24189.50170837 -.00000070  00000+0  19049-3 0  9993
2 39077  51.9805 282.1750 0001133 153.4939 206.5986 12.62261892526607
